{
  "type": "FeatureCollection",
  "features": [
    {
      "type": "Feature",
      "properties": {
        "norad_id": 67081,
        "name": "STARLINK-35864",
        "group": "last-30-days",
        "lat": -69.71375193217906,
        "lon": 138.32369038074216,
        "alt_km": 317.2598040705816,
        "timestamp": "2025-12-23T18:59:30.760752+00:00",
        "meta_object_name": "STARLINK-35864",
        "meta_object_id": "2025-298G",
        "meta_epoch": "2025-12-23T06:00:00.999648",
        "meta_mean_motion": 15.88250015,
        "meta_eccentricity": 0.00040472,
        "meta_inclination": 69.9965,
        "meta_ra_of_asc_node": 220.1423,
        "meta_arg_of_pericenter": 278.5166,
        "meta_mean_anomaly": 142.7868,
        "meta_ephemeris_type": 0,
        "meta_classification_type": "U",
        "meta_norad_cat_id": 67081,
        "meta_element_set_no": 999,
        "meta_rev_at_epoch": 266,
        "meta_bstar": -0.0073609494,
        "meta_mean_motion_dot": -0.0175842,
        "meta_mean_motion_ddot": 0,
        "tle_line1": "1 67081U 25298G   25357.25001157 -.01758420  00000+0 -73609-2 0  9996",
        "tle_line2": "2 67081  69.9965 220.1423 0004047 278.5166 142.7868 15.88250015  2667"
      },
      "geometry": {
        "type": "Point",
        "coordinates": [
          138.32369038074216,
          -69.71375193217906
        ]
      }
    },
    {
      "type": "Feature",
      "properties": {
        "norad_id": 67082,
        "name": "STARLINK-36035",
        "group": "last-30-days",
        "lat": -69.28225528324474,
        "lon": 144.16889820181993,
        "alt_km": 317.2290353226472,
        "timestamp": "2025-12-23T18:59:30.760760+00:00",
        "meta_object_name": "STARLINK-36035",
        "meta_object_id": "2025-298H",
        "meta_epoch": "2025-12-23T06:00:00.999648",
        "meta_mean_motion": 15.882393,
        "meta_eccentricity": 0.00041145,
        "meta_inclination": 69.9965,
        "meta_ra_of_asc_node": 220.1398,
        "meta_arg_of_pericenter": 273.6984,
        "meta_mean_anomaly": 149.7178,
        "meta_ephemeris_type": 0,
        "meta_classification_type": "U",
        "meta_norad_cat_id": 67082,
        "meta_element_set_no": 999,
        "meta_rev_at_epoch": 266,
        "meta_bstar": -0.0073669437,
        "meta_mean_motion_dot": -0.01758933,
        "meta_mean_motion_ddot": 0,
        "tle_line1": "1 67082U 25298H   25357.25001157 -.01758933  00000+0 -73669-2 0  9992",
        "tle_line2": "2 67082  69.9965 220.1398 0004114 273.6984 149.7178 15.88239300  2663"
      },
      "geometry": {
        "type": "Point",
        "coordinates": [
          144.16889820181993,
          -69.28225528324474
        ]
      }
    },
    {
      "type": "Feature",
      "properties": {
        "norad_id": 67083,
        "name": "STARLINK-36170",
        "group": "last-30-days",
        "lat": -68.64728439444121,
        "lon": 149.8480195114304,
        "alt_km": 317.28205872504714,
        "timestamp": "2025-12-23T18:59:30.760771+00:00",
        "meta_object_name": "STARLINK-36170",
        "meta_object_id": "2025-298J",
        "meta_epoch": "2025-12-23T06:00:00.999648",
        "meta_mean_motion": 15.88234541,
        "meta_eccentricity": 0.00040816,
        "meta_inclination": 69.9964,
        "meta_ra_of_asc_node": 220.1372,
        "meta_arg_of_pericenter": 273.8982,
        "meta_mean_anomaly": 151.672,
        "meta_ephemeris_type": 0,
        "meta_classification_type": "U",
        "meta_norad_cat_id": 67083,
        "meta_element_set_no": 999,
        "meta_rev_at_epoch": 266,
        "meta_bstar": -0.0073916431,
        "meta_mean_motion_dot": -0.01763607,
        "meta_mean_motion_ddot": 0,
        "tle_line1": "1 67083U 25298J   25357.25001157 -.01763607  00000+0 -73916-2 0  9992",
        "tle_line2": "2 67083  69.9964 220.1372 0004081 273.8982 151.6720 15.88234541  2665"
      },
      "geometry": {
        "type": "Point",
        "coordinates": [
          149.8480195114304,
          -68.64728439444121
        ]
      }
    },
    {
      "type": "Feature",
      "properties": {
        "norad_id": 67084,
        "name": "STARLINK-36166",
        "group": "last-30-days",
        "lat": -67.88404228023272,
        "lon": 154.8761616125784,
        "alt_km": 317.2606118019494,
        "timestamp": "2025-12-23T18:59:30.760780+00:00",
        "meta_object_name": "STARLINK-36166",
        "meta_object_id": "2025-298K",
        "meta_epoch": "2025-12-23T06:00:00.999648",
        "meta_mean_motion": 15.88230539,
        "meta_eccentricity": 0.00041226,
        "meta_inclination": 69.9964,
        "meta_ra_of_asc_node": 220.1347,
        "meta_arg_of_pericenter": 274.1558,
        "meta_mean_anomaly": 153.4369,
        "meta_ephemeris_type": 0,
        "meta_classification_type": "U",
        "meta_norad_cat_id": 67084,
        "meta_element_set_no": 999,
        "meta_rev_at_epoch": 260,
        "meta_bstar": -0.0073894474,
        "meta_mean_motion_dot": -0.01762908,
        "meta_mean_motion_ddot": 0,
        "tle_line1": "1 67084U 25298K   25357.25001157 -.01762908  00000+0 -73894-2 0  9991",
        "tle_line2": "2 67084  69.9964 220.1347 0004122 274.1558 153.4369 15.88230539  2603"
      },
      "geometry": {
        "type": "Point",
        "coordinates": [
          154.8761616125784,
          -67.88404228023272
        ]
      }
    },
    {
      "type": "Feature",
      "properties": {
        "norad_id": 67085,
        "name": "STARLINK-35794",
        "group": "last-30-days",
        "lat": -66.99189149700898,
        "lon": 159.48806231059504,
        "alt_km": 317.20186809541883,
        "timestamp": "2025-12-23T18:59:30.760789+00:00",
        "meta_object_name": "STARLINK-35794",
        "meta_object_id": "2025-298L",
        "meta_epoch": "2025-12-23T06:00:00.999648",
        "meta_mean_motion": 15.88225549,
        "meta_eccentricity": 0.00042105,
        "meta_inclination": 69.9966,
        "meta_ra_of_asc_node": 220.1317,
        "meta_arg_of_pericenter": 273.78,
        "meta_mean_anomaly": 155.8018,
        "meta_ephemeris_type": 0,
        "meta_classification_type": "U",
        "meta_norad_cat_id": 67085,
        "meta_element_set_no": 999,
        "meta_rev_at_epoch": 266,
        "meta_bstar": -0.0073718158,
        "meta_mean_motion_dot": -0.01759024,
        "meta_mean_motion_ddot": 0,
        "tle_line1": "1 67085U 25298L   25357.25001157 -.01759024  00000+0 -73718-2 0  9992",
        "tle_line2": "2 67085  69.9966 220.1317 0004210 273.7800 155.8018 15.88225549  2664"
      },
      "geometry": {
        "type": "Point",
        "coordinates": [
          159.48806231059504,
          -66.99189149700898
        ]
      }
    },
    {
      "type": "Feature",
      "properties": {
        "norad_id": 67086,
        "name": "STARLINK-35841",
        "group": "last-30-days",
        "lat": -65.83665276492641,
        "lon": 164.27481633046523,
        "alt_km": 317.2911579477104,
        "timestamp": "2025-12-23T18:59:30.760799+00:00",
        "meta_object_name": "STARLINK-35841",
        "meta_object_id": "2025-298M",
        "meta_epoch": "2025-12-23T06:00:00.999648",
        "meta_mean_motion": 15.88209344,
        "meta_eccentricity": 0.00041034,
        "meta_inclination": 69.9962,
        "meta_ra_of_asc_node": 220.1295,
        "meta_arg_of_pericenter": 274.1469,
        "meta_mean_anomaly": 157.6962,
        "meta_ephemeris_type": 0,
        "meta_classification_type": "U",
        "meta_norad_cat_id": 67086,
        "meta_element_set_no": 999,
        "meta_rev_at_epoch": 266,
        "meta_bstar": -0.0073385213,
        "meta_mean_motion_dot": -0.01750781,
        "meta_mean_motion_ddot": 0,
        "tle_line1": "1 67086U 25298M   25357.25001157 -.01750781  00000+0 -73385-2 0  9994",
        "tle_line2": "2 67086  69.9962 220.1295 0004103 274.1469 157.6962 15.88209344  2666"
      },
      "geometry": {
        "type": "Point",
        "coordinates": [
          164.27481633046523,
          -65.83665276492641
        ]
      }
    },
    {
      "type": "Feature",
      "properties": {
        "norad_id": 67087,
        "name": "STARLINK-35842",
        "group": "last-30-days",
        "lat": -64.81595489375314,
        "lon": 167.78321358698867,
        "alt_km": 317.2839265340008,
        "timestamp": "2025-12-23T18:59:30.760808+00:00",
        "meta_object_name": "STARLINK-35842",
        "meta_object_id": "2025-298N",
        "meta_epoch": "2025-12-23T06:00:00.999648",
        "meta_mean_motion": 15.88212119,
        "meta_eccentricity": 0.00041001,
        "meta_inclination": 69.9963,
        "meta_ra_of_asc_node": 220.1272,
        "meta_arg_of_pericenter": 274.6621,
        "meta_mean_anomaly": 158.9644,
        "meta_ephemeris_type": 0,
        "meta_classification_type": "U",
        "meta_norad_cat_id": 67087,
        "meta_element_set_no": 999,
        "meta_rev_at_epoch": 266,
        "meta_bstar": -0.0073381327,
        "meta_mean_motion_dot": -0.01750907,
        "meta_mean_motion_ddot": 0,
        "tle_line1": "1 67087U 25298N   25357.25001157 -.01750907  00000+0 -73381-2 0  9991",
        "tle_line2": "2 67087  69.9963 220.1272 0004100 274.6621 158.9644 15.88212119  2660"
      },
      "geometry": {
        "type": "Point",
        "coordinates": [
          167.78321358698867,
          -64.81595489375314
        ]
      }
    }
  ]
}